[
    {
        "Altitude(m)": 622200.1070472975,
        "Argument of Periapsis(deg)": 0.0,
        "Eccentricity": 0.0,
        "Inclination(deg)": 60.0,
        "Latitude(deg)": -52.16253780352394,
        "Longitude(deg)": 177.36062535218977,
        "Mean Anomaly(deg)": -65.45449999999998,
        "RAAN(deg)": 325.0,
        "Satellite Name": "Test1 1448",
        "Satellite Number": 1448,
        "Semi-Major Axis(m)": 6980739.136638005,
        "Time(s)": 0
    },
    {
        "Altitude(m)": 622058.2752799094,
        "Argument of Periapsis(deg)": 0.00010418945913296404,
        "Eccentricity": 0.0,
        "Inclination(deg)": 60.0,
        "Latitude(deg)": -51.799288787142466,
        "Longitude(deg)": 178.12868489088797,
        "Mean Anomaly(deg)": -64.83439385453813,
        "RAAN(deg)": 324.99957995086027,
        "Satellite Name": "Test1 1448",
        "Satellite Number": 1448,
        "Semi-Major Axis(m)": 6980739.136638005,
        "Time(s)": 10
    }
]